[{"OBJECT_NAME":"STARLINK-2645","OBJECT_ID":"2021-040S","EPOCH":"2026-03-09T12:20:07.249920","MEAN_MOTION":15.30211266,"ECCENTRICITY":0.00010807,"INCLINATION":53.1606,"RA_OF_ASC_NODE":178.9451,"ARG_OF_PERICENTER":69.1744,"MEAN_ANOMALY":290.9373,"EPHEMERIS_TYPE":0,"CLASSIFICATION_TYPE":"U","NORAD_CAT_ID":48444,"ELEMENT_SET_NO":999,"REV_AT_EPOCH":26665,"BSTAR":0.00024115912,"MEAN_MOTION_DOT":6.792e-5,"MEAN_MOTION_DDOT":0},{"OBJECT_NAME":"ION SCV-008","OBJECT_ID":"2023-001AU","EPOCH":"2026-03-09T19:46:58.662912","MEAN_MOTION":15.2722664,"ECCENTRICITY":0.00151921,"INCLINATION":97.5676,"RA_OF_ASC_NODE":163.606,"ARG_OF_PERICENTER":8.542,"MEAN_ANOMALY":351.6074,"EPHEMERIS_TYPE":0,"CLASSIFICATION_TYPE":"U","NORAD_CAT_ID":55051,"ELEMENT_SET_NO":999,"REV_AT_EPOCH":17616,"BSTAR":0.00031422806,"MEAN_MOTION_DOT":8.336e-5,"MEAN_MOTION_DDOT":0}]
